ATS 1                   
1 02608U 66110A   10086.87071115 -.00000050  00000-0  10000-3 0   716
2 02608   7.4215 309.2707 0002350 192.6816 167.1730  1.00295067 75353
ATS 3                   
1 03029U 67111A   10088.39588981 -.00000126  00000-0  10000-3 0  5976
2 03029   9.0094 316.4112 0017213  49.5697 217.9749  1.00272026155235
ORIZURU (DEBUT)         
1 20479U 90013B   10088.16448861 -.00000071  00000-0 -80424-4 0  5381
2 20479  99.0456 322.5343 0538790 239.7932 114.8761 12.83691959943597
SURFSAT                 
1 23711U 95059B   10089.03174117  .00000069  00000-0  22066-3 0  4803
2 23711 100.3140  88.4568 0368405 186.4231 173.2119 13.12573992689936
MAQSAT H                
1 25023U 97066A   10087.06101772 -.00000031  00000-0  44204-3 0  7822
2 25023   7.7858  52.9042 6505617 110.0988 327.7619  3.09471078140142
MAQSAT B                
1 25024U 97066B   10089.01094156 -.00000090  00000-0 -31002-4 0  8298
2 25024   7.8176  48.2765 6521301 118.5263 321.0551  3.08764864140086
TEAMSAT                 
1 25025U 97066C   10087.97383980  .00000009  00000-0  45520-3 0  8307
2 25025   7.8234  63.9342 6515354  87.5535 340.2237  3.07909570139654
OPAL (OO-38)            
1 26063U 00004C   10088.70801263  .00000016  00000-0  25760-4 0  7635
2 26063 100.2264 292.8615 0036919 177.2147 182.9252 14.35889675532920
FALCONSAT               
1 26064U 00004D   10088.69830770  .00000030  00000-0  30785-4 0  7223
2 26064 100.2292 290.6754 0038212 184.7311 175.3518 14.35441263532777
PICOSAT 1 & 2 [TETHERED]
1 26080U 00004H   10089.09448804  .00000079  00000-0  43412-4 0  3083
2 26080 100.2124 319.2468 0032972 119.7493 240.7007 14.40402775532642
PICOSAT 3               
1 26091U 00004J   10088.49949949  .00000303  00000-0  10655-3 0  8722
2 26091 100.2010 331.2439 0031852  80.1671 280.3110 14.43532691532587
PICOSAT 4               
1 26092U 00004K   10088.85039704  .00000149  00000-0  65214-4 0  7068
2 26092 100.2070 312.7514 0036004 115.7822 244.7099 14.40367782531829
PICOSAT 5               
1 26093U 00004L   10088.95403969  .00000314  00000-0  10655-3 0  6069
2 26093 100.1952 339.3287 0033151  59.7415 300.7066 14.45088549533325
PICOSAT 6               
1 26094U 00004M   10089.08095242  .00000120  00000-0  56954-4 0  9416
2 26094 100.2125 311.1077 0035684 127.7440 232.6935 14.39653397531341
SNAP 1                  
1 26386U 00033C   10089.05708702  .00000176  00000-0  42071-4 0  9619
2 26386  98.3481 131.1965 0012180  23.1940 336.9823 14.65218626521022
CHAMP                   
1 26405U 00039B   10089.09793362  .00038985 -73840-6  10518-3 0  1594
2 26405  87.2226 196.6115 0002380  98.2951 261.8604 15.94111629555025
PICOSAT 9               
1 26930U 01043B   10088.41299062 -.00000052  00000-0  12182-4 0  4001
2 26930  67.0027  25.6287 0010578 255.7022 104.2905 14.30066026443525
PROBA-1                 
1 26958U 01049B   10089.05018807  .00000219  00000-0  27084-4 0  5679
2 26958  97.5805 145.8479 0082446 138.2336 222.5231 14.89764189458386
CUTE-1 (CO-55)          
1 27844U 03031E   10088.72352519  .00000032  00000-0  35313-4 0  8121
2 27844  98.7121  98.8350 0010663  43.5681 316.6321 14.20693809349809
CANX-1                  
1 27847U 03031H   10088.50157994  .00000050  00000-0  43036-4 0  7333
2 27847  98.7037  99.4967 0010040  24.3235 335.8425 14.21003078349813
CUBESAT XI-IV (CO-57)   
1 27848U 03031J   10088.74154509  .00000053  00000-0  45213-4 0  7634
2 27848  98.7164  97.9353 0010614  48.1726 312.0343 14.20488514349764
NAXING 1                
1 28221U 04012B   10088.72927654  .00000271  00000-0  35034-4 0  4456
2 28221  97.4630 112.7346 0011182 338.1144  21.9534 14.87988260322775
ST5-A                   
1 28980U 06008A   10088.59356397  .00003759  00000-0  21502-3 0  2557
2 28980 105.6909  93.9696 2347837 238.9488  96.0165 10.63474645155296
ST5-B                   
1 28981U 06008B   10089.12218183  .00011436  17561-5  37169-3 0  3225
2 28981 105.6270 121.3601 2314368 208.6307 136.5671 10.78585681156569
ST5-C                   
1 28982U 06008C   10088.48109074  .00007314  17506-5  28668-3 0  3180
2 28982 105.6614 113.7290 2328439 220.3279 119.9857 10.73580515156099
GENESIS 1               
1 29252U 06029A   10089.14961845  .00000443  00000-0  45090-4 0   155
2 29252  64.5127 160.3357 0005890  12.5373 347.5893 15.03568471203908
FALCONSAT-3             
1 30776U 07006E   10088.53515048  .00001014  00000-0  75796-4 0  7952
2 30776  35.4329 167.8415 0001234 273.5959  86.4617 15.03554548168066
GENESIS 2               
1 31789U 07028A   10088.76868728  .00000573  00000-0  54765-4 0  7639
2 31789  64.5113 193.0331 0040214 222.2077 137.5944 15.03246357151054
APRIZESAT 4             
1 35684U 09041D   10088.31250650  .00000268  00000-0  46099-4 0  2204
2 35684  98.1099 348.7640 0049126 300.7600  58.8746 14.76061507 35782
APRIZESAT 3             
1 35686U 09041F   10088.46895181 -.00000236  00000-0 -20500-4 0  2123
2 35686  98.1099 351.4108 0078657 297.3034  62.0174 14.82545940 35964
PROBA-2                 
1 36037U 09059B   10088.53698650 -.00000045  00000-0  00000+0 0  1240
2 36037  98.3109 277.4150 0013486 157.3380 202.8424 14.51978214 21395
